[{"OBJECT_NAME":"JILIN-1 GAOFEN 03D15","OBJECT_ID":"2022-019R","EPOCH":"2026-03-09T23:58:07.561632","MEAN_MOTION":15.6920844,"ECCENTRICITY":0.00039863,"INCLINATION":97.369,"RA_OF_ASC_NODE":160.232,"ARG_OF_PERICENTER":172.8619,"MEAN_ANOMALY":187.27,"EPHEMERIS_TYPE":0,"CLASSIFICATION_TYPE":"U","NORAD_CAT_ID":51839,"ELEMENT_SET_NO":999,"REV_AT_EPOCH":22441,"BSTAR":0.0010884373,"MEAN_MOTION_DOT":0.00128061,"MEAN_MOTION_DDOT":0},{"OBJECT_NAME":"STARLINK-11098 [DTC]","OBJECT_ID":"2024-091H","EPOCH":"2026-03-09T14:56:05.411040","MEAN_MOTION":15.697047,"ECCENTRICITY":6.19e-5,"INCLINATION":53.159,"RA_OF_ASC_NODE":206.5306,"ARG_OF_PERICENTER":90.866,"MEAN_ANOMALY":269.2429,"EPHEMERIS_TYPE":0,"CLASSIFICATION_TYPE":"U","NORAD_CAT_ID":59760,"ELEMENT_SET_NO":999,"REV_AT_EPOCH":10550,"BSTAR":-1.4064e-6,"MEAN_MOTION_DOT":-7.58e-6,"MEAN_MOTION_DDOT":0}]
